start=new Date('2023-06-24T00:00:00.000Z').valueOf();
sats=[{"ELEMENT_SET_NO":"999","SEMIMAJOR_AXIS":"6925.411","INCLINATION":"53.0552","MEAN_MOTION":"15.06379480","PERIOD":"95.593","MEAN_ANOMALY":"284.6213","REV_AT_EPOCH":"12725","OBJECT_TYPE":"PAYLOAD","BSTAR":"0.00118560000000","COUNTRY_CODE":"US","DECAY_DATE":null,"CENTER_NAME":"EARTH","SITE":"AFETR","OBJECT_NAME":"STARLINK-2314","ECCENTRICITY":"0.00008500","TIME_SYSTEM":"UTC","REF_FRAME":"TEME","PERIAPSIS":"546.688","LAUNCH_DATE":"2021-03-11","GP_ID":"234462319","OBJECT_ID":"2021-018B","MEAN_MOTION_DDOT":"0.0000000000000","TLE_LINE2":"2 47788  53.0552 355.0960 0000850  75.4870 284.6213 15.06379480127254","APOAPSIS":"547.865","FILE":"3940097","ARG_OF_PERICENTER":"75.4870","RA_OF_ASC_NODE":"355.0960","NORAD_CAT_ID":"47788","MEAN_MOTION_DOT":"0.00017412","RCS_SIZE":"LARGE","TLE_LINE1":"1 47788U 21018B   23173.75492143  .00017412  00000-0  11856-2 0  9995","MEAN_ELEMENT_THEORY":"SGP4","EPHEMERIS_TYPE":"0","CLASSIFICATION_TYPE":"U","EPOCH":"2023-06-22T18:07:05.211552"},{"MEAN_ANOMALY":"278.7414","PERIOD":"95.590","REV_AT_EPOCH":"12733","SEMIMAJOR_AXIS":"6925.265","MEAN_MOTION":"15.06427143","ELEMENT_SET_NO":"999","INCLINATION":"53.0554","OBJECT_TYPE":"PAYLOAD","BSTAR":"0.00137070000000","COUNTRY_CODE":"US","DECAY_DATE":null,"CENTER_NAME":"EARTH","OBJECT_NAME":"STARLINK-2315","ECCENTRICITY":"0.00008870","TIME_SYSTEM":"UTC","SITE":"AFETR","LAUNCH_DATE":"2021-03-11","PERIAPSIS":"546.516","GP_ID":"234511533","REF_FRAME":"TEME","OBJECT_ID":"2021-018C","MEAN_MOTION_DDOT":"0.0000000000000","TLE_LINE2":"2 47789  53.0554 355.4066 0000887  81.3675 278.7414 15.06427143127333","APOAPSIS":"547.745","FILE":"3941043","NORAD_CAT_ID":"47789","MEAN_MOTION_DOT":"0.00020209","RA_OF_ASC_NODE":"355.4066","ARG_OF_PERICENTER":"81.3675","EPOCH":"2023-06-23T19:11:09.820608","RCS_SIZE":"LARGE","MEAN_ELEMENT_THEORY":"SGP4","TLE_LINE1":"1 47789U 21018C   23174.79941922  .00020209  00000-0  13707-2 0  9990","EPHEMERIS_TYPE":"0","CLASSIFICATION_TYPE":"U"},{"OBJECT_NAME":"STARLINK-2319","ECCENTRICITY":"0.00010840","TIME_SYSTEM":"UTC","SITE":"AFETR","COUNTRY_CODE":"US","DECAY_DATE":null,"CENTER_NAME":"EARTH","OBJECT_TYPE":"PAYLOAD","BSTAR":"0.00140740000000","PERIOD":"95.593","MEAN_ANOMALY":"287.2644","REV_AT_EPOCH":"12732","ELEMENT_SET_NO":"999","SEMIMAJOR_AXIS":"6925.410","INCLINATION":"53.0555","MEAN_MOTION":"15.06379933","EPOCH":"2023-06-22T18:42:15.442560","RCS_SIZE":"LARGE","EPHEMERIS_TYPE":"0","TLE_LINE1":"1 47790U 21018D   23173.77934540  .00020732  00000-0  14074-2 0  9996","MEAN_ELEMENT_THEORY":"SGP4","CLASSIFICATION_TYPE":"U","MEAN_MOTION_DOT":"0.00020732","NORAD_CAT_ID":"47790","RA_OF_ASC_NODE":"349.9867","ARG_OF_PERICENTER":"72.8464","OBJECT_ID":"2021-018D","MEAN_MOTION_DDOT":"0.0000000000000","TLE_LINE2":"2 47790  53.0555 349.9867 0001084  72.8464 287.2644 15.06379933127326","FILE":"3940072","APOAPSIS":"548.026","LAUNCH_DATE":"2021-03-11","PERIAPSIS":"546.524","GP_ID":"234461522","REF_FRAME":"TEME"},{"MEAN_MOTION_DOT":"0.00019723","NORAD_CAT_ID":"47791","RA_OF_ASC_NODE":"17.8181","ARG_OF_PERICENTER":"83.5522","EPOCH":"2023-06-23T06:18:53.941248","RCS_SIZE":"LARGE","CLASSIFICATION_TYPE":"U","TLE_LINE1":"1 47791U 21018E   23174.26312432  .00019723  00000-0  13390-2 0  9990","MEAN_ELEMENT_THEORY":"SGP4","EPHEMERIS_TYPE":"0","LAUNCH_DATE":"2021-03-11","PERIAPSIS":"546.525","GP_ID":"234500990","REF_FRAME":"TEME","MEAN_MOTION_DDOT":"0.0000000000000","OBJECT_ID":"2021-018E","APOAPSIS":"547.859","FILE":"3940623","TLE_LINE2":"2 47791  53.0544  17.8181 0000963  83.5522 276.5576 15.06406980126972","COUNTRY_CODE":"US","CENTER_NAME":"EARTH","DECAY_DATE":null,"ECCENTRICITY":"0.00009630","OBJECT_NAME":"STARLINK-2322","TIME_SYSTEM":"UTC","SITE":"AFETR","MEAN_ANOMALY":"276.5576","PERIOD":"95.592","REV_AT_EPOCH":"12697","ELEMENT_SET_NO":"999","SEMIMAJOR_AXIS":"6925.327","INCLINATION":"53.0544","MEAN_MOTION":"15.06406980","OBJECT_TYPE":"PAYLOAD","BSTAR":"0.00133900000000"},{"NORAD_CAT_ID":"47792","MEAN_MOTION_DOT":"0.00023449","RA_OF_ASC_NODE":"359.8420","ARG_OF_PERICENTER":"78.6502","EPOCH":"2023-06-22T19:28:41.698272","RCS_SIZE":"LARGE","CLASSIFICATION_TYPE":"U","TLE_LINE1":"1 47792U 21018F   23173.81159373  .00023449  00000-0  15886-2 0  9996","EPHEMERIS_TYPE":"0","MEAN_ELEMENT_THEORY":"SGP4","PERIAPSIS":"546.655","LAUNCH_DATE":"2021-03-11","GP_ID":"234461547","REF_FRAME":"TEME","MEAN_MOTION_DDOT":"0.0000000000000","OBJECT_ID":"2021-018F","APOAPSIS":"547.875","FILE":"3940074","TLE_LINE2":"2 47792  53.0553 359.8420 0000881  78.6502 281.4585 15.06383230127181","COUNTRY_CODE":"US","CENTER_NAME":"EARTH","DECAY_DATE":null,"ECCENTRICITY":"0.00008810","OBJECT_NAME":"STARLINK-2334","TIME_SYSTEM":"UTC","SITE":"AFETR","PERIOD":"95.593","MEAN_ANOMALY":"281.4585","REV_AT_EPOCH":"12718","ELEMENT_SET_NO":"999","SEMIMAJOR_AXIS":"6925.400","INCLINATION":"53.0553","MEAN_MOTION":"15.06383230","OBJECT_TYPE":"PAYLOAD","BSTAR":"0.00158860000000"},{"OBJECT_TYPE":"PAYLOAD","BSTAR":"0.00048850000000","INCLINATION":"53.0545","SEMIMAJOR_AXIS":"6925.378","ELEMENT_SET_NO":"999","MEAN_MOTION":"15.06390487","PERIOD":"95.593","MEAN_ANOMALY":"269.2487","REV_AT_EPOCH":"12719","SITE":"AFETR","OBJECT_NAME":"STARLINK-2338","ECCENTRICITY":"0.00007700","TIME_SYSTEM":"UTC","COUNTRY_CODE":"US","DECAY_DATE":null,"CENTER_NAME":"EARTH","OBJECT_ID":"2021-018G","MEAN_MOTION_DDOT":"0.0000000000000","TLE_LINE2":"2 47793  53.0545 359.4817 0000770  90.8590 269.2487 15.06390487127197","APOAPSIS":"547.776","FILE":"3940363","REF_FRAME":"TEME","LAUNCH_DATE":"2021-03-11","PERIAPSIS":"546.709","GP_ID":"234495361","RCS_SIZE":"LARGE","MEAN_ELEMENT_THEORY":"SGP4","TLE_LINE1":"1 47793U 21018G   23173.89268557  .00007000  00000-0  48850-3 0  9993","EPHEMERIS_TYPE":"0","CLASSIFICATION_TYPE":"U","EPOCH":"2023-06-22T21:25:28.033248","RA_OF_ASC_NODE":"359.4817","ARG_OF_PERICENTER":"90.8590","MEAN_MOTION_DOT":"0.00007000","NORAD_CAT_ID":"47793"},{"MEAN_MOTION_DDOT":"0.0000000000000","OBJECT_ID":"2021-018H","APOAPSIS":"547.716","FILE":"3940087","TLE_LINE2":"2 47794  53.0550   0.0598 0000626  59.3849 300.7202 15.06377645127171","LAUNCH_DATE":"2021-03-11","PERIAPSIS":"546.849","GP_ID":"234461612","REF_FRAME":"TEME","EPOCH":"2023-06-22T18:19:41.614176","RCS_SIZE":"LARGE","CLASSIFICATION_TYPE":"U","TLE_LINE1":"1 47794U 21018H   23173.76367609  .00019116  00000-0  12995-2 0  9999","EPHEMERIS_TYPE":"0","MEAN_ELEMENT_THEORY":"SGP4","NORAD_CAT_ID":"47794","MEAN_MOTION_DOT":"0.00019116","RA_OF_ASC_NODE":"0.0598","ARG_OF_PERICENTER":"59.3849","OBJECT_TYPE":"PAYLOAD","BSTAR":"0.00129950000000","MEAN_ANOMALY":"300.7202","PERIOD":"95.594","REV_AT_EPOCH":"12717","MEAN_MOTION":"15.06377645","SEMIMAJOR_AXIS":"6925.417","ELEMENT_SET_NO":"999","INCLINATION":"53.0550","ECCENTRICITY":"0.00006260","OBJECT_NAME":"STARLINK-2341","TIME_SYSTEM":"UTC","SITE":"AFETR","COUNTRY_CODE":"US","CENTER_NAME":"EARTH","DECAY_DATE":null},{"CLASSIFICATION_TYPE":"U","TLE_LINE1":"1 47795U 21018J   23173.81896774  .00022088  00000-0  14980-2 0  9994","EPHEMERIS_TYPE":"0","MEAN_ELEMENT_THEORY":"SGP4","RCS_SIZE":"LARGE","EPOCH":"2023-06-22T19:39:18.812736","RA_OF_ASC_NODE":"359.8085","ARG_OF_PERICENTER":"82.9102","MEAN_MOTION_DOT":"0.00022088","NORAD_CAT_ID":"47795","FILE":"3940087","APOAPSIS":"548.072","TLE_LINE2":"2 47795  53.0552 359.8085 0001138  82.9102 277.2017 15.06377030127184","MEAN_MOTION_DDOT":"0.0000000000000","OBJECT_ID":"2021-018J","REF_FRAME":"TEME","GP_ID":"234461611","PERIAPSIS":"546.496","LAUNCH_DATE":"2021-03-11","SITE":"AFETR","TIME_SYSTEM":"UTC","ECCENTRICITY":"0.00011380","OBJECT_NAME":"STARLINK-2347","CENTER_NAME":"EARTH","DECAY_DATE":null,"COUNTRY_CODE":"US","BSTAR":"0.00149800000000","OBJECT_TYPE":"PAYLOAD","MEAN_MOTION":"15.06377030","SEMIMAJOR_AXIS":"6925.419","ELEMENT_SET_NO":"999","INCLINATION":"53.0552","REV_AT_EPOCH":"12718","MEAN_ANOMALY":"277.2017","PERIOD":"95.594"},{"REF_FRAME":"TEME","GP_ID":"234459540","LAUNCH_DATE":"2021-03-11","PERIAPSIS":"546.605","APOAPSIS":"547.948","FILE":"3940012","TLE_LINE2":"2 47796  53.0550   0.0402 0000970  78.7594 281.3504 15.06379415127177","MEAN_MOTION_DDOT":"0.0000000000000","OBJECT_ID":"2021-018K","RA_OF_ASC_NODE":"0.0402","ARG_OF_PERICENTER":"78.7594","MEAN_MOTION_DOT":"0.00019994","NORAD_CAT_ID":"47796","CLASSIFICATION_TYPE":"U","TLE_LINE1":"1 47796U 21018K   23173.76736208  .00019994  00000-0  13581-2 0  9992","MEAN_ELEMENT_THEORY":"SGP4","EPHEMERIS_TYPE":"0","RCS_SIZE":"LARGE","EPOCH":"2023-06-22T18:25:00.083712","SEMIMAJOR_AXIS":"6925.412","INCLINATION":"53.0550","ELEMENT_SET_NO":"999","MEAN_MOTION":"15.06379415","REV_AT_EPOCH":"12717","PERIOD":"95.593","MEAN_ANOMALY":"281.3504","BSTAR":"0.00135810000000","OBJECT_TYPE":"PAYLOAD","CENTER_NAME":"EARTH","DECAY_DATE":null,"COUNTRY_CODE":"US","SITE":"AFETR","TIME_SYSTEM":"UTC","ECCENTRICITY":"0.00009700","OBJECT_NAME":"STARLINK-2373"},{"OBJECT_NAME":"STARLINK-2377","ECCENTRICITY":"0.00009730","TIME_SYSTEM":"UTC","SITE":"AFETR","COUNTRY_CODE":"US","DECAY_DATE":null,"CENTER_NAME":"EARTH","OBJECT_TYPE":"PAYLOAD","BSTAR":"0.00111040000000","PERIOD":"95.591","MEAN_ANOMALY":"268.5004","REV_AT_EPOCH":"12697","SEMIMAJOR_AXIS":"6925.274","MEAN_MOTION":"15.06424215","ELEMENT_SET_NO":"999","INCLINATION":"53.0547","EPOCH":"2023-06-23T17:34:57.860832","RCS_SIZE":"LARGE","TLE_LINE1":"1 47797U 21018L   23174.73261413  .00016307  00000-0  11104-2 0  9996","EPHEMERIS_TYPE":"0","MEAN_ELEMENT_THEORY":"SGP4","CLASSIFICATION_TYPE":"U","NORAD_CAT_ID":"47797","MEAN_MOTION_DOT":"0.00016307","RA_OF_ASC_NODE":"20.7109","ARG_OF_PERICENTER":"91.6096","OBJECT_ID":"2021-018L","MEAN_MOTION_DDOT":"0.0000000000000","TLE_LINE2":"2 47797  53.0547  20.7109 0000973  91.6096 268.5004 15.06424215126979","FILE":"3940932","APOAPSIS":"547.813","LAUNCH_DATE":"2021-03-11","PERIAPSIS":"546.466","GP_ID":"234508613","REF_FRAME":"TEME"}];
